STARLINK-1256
1 15401C 20019AT  21326.14062015 -.00008539  00000-0 -57224-3 0  3263
2 15401  53.0545 338.1139 0001674  57.4788  47.8768 15.06400238    13
